FENGYUN 1C DEB          
1 29783U 99025BZ  17345.84841003  .00002151  00000-0  27828-3 0  9991
2 29783  98.9602 322.0656 0087144 125.6312 299.4181 14.79544800579909
